[{"OBJECT_NAME":"HXMT (HUIYAN)","OBJECT_ID":"2017-034A","EPOCH":"2026-03-09T23:24:09.166176","MEAN_MOTION":15.17468939,"ECCENTRICITY":0.00329459,"INCLINATION":43.0157,"RA_OF_ASC_NODE":15.0865,"ARG_OF_PERICENTER":237.7405,"MEAN_ANOMALY":122.0249,"EPHEMERIS_TYPE":0,"CLASSIFICATION_TYPE":"U","NORAD_CAT_ID":42758,"ELEMENT_SET_NO":999,"REV_AT_EPOCH":48258,"BSTAR":0.00038670516,"MEAN_MOTION_DOT":7.762e-5,"MEAN_MOTION_DDOT":0},{"OBJECT_NAME":"STARLINK-3947","OBJECT_ID":"2022-052K","EPOCH":"2026-03-09T21:10:58.864800","MEAN_MOTION":15.08835543,"ECCENTRICITY":0.00013479,"INCLINATION":53.2166,"RA_OF_ASC_NODE":283.2667,"ARG_OF_PERICENTER":92.7035,"MEAN_ANOMALY":267.4112,"EPHEMERIS_TYPE":0,"CLASSIFICATION_TYPE":"U","NORAD_CAT_ID":52607,"ELEMENT_SET_NO":999,"REV_AT_EPOCH":21080,"BSTAR":5.0277452e-5,"MEAN_MOTION_DOT":5.12e-6,"MEAN_MOTION_DDOT":0}]
